{
  "type": "FeatureCollection",
  "features": [
    {
      "type": "Feature",
      "properties": {
        "norad_id": 35705,
        "name": "COSMOS 2251 DEB",
        "group": "cosmos-2251-debris",
        "lat": -8.800888629767025,
        "lon": 135.54468136376533,
        "alt_km": 662.3852870052287,
        "timestamp": "2025-12-11T13:55:02.562809+00:00",
        "meta_object_name": "COSMOS 2251 DEB",
        "meta_object_id": "1993-036AQA",
        "meta_epoch": "2025-12-03T05:18:59.084352",
        "meta_mean_motion": 14.71707631,
        "meta_eccentricity": 0.0034156,
        "meta_inclination": 74.2742,
        "meta_ra_of_asc_node": 154.0557,
        "meta_arg_of_pericenter": 110.0272,
        "meta_mean_anomaly": 250.4584,
        "meta_ephemeris_type": 0,
        "meta_classification_type": "U",
        "meta_norad_cat_id": 35705,
        "meta_element_set_no": 999,
        "meta_rev_at_epoch": 85786,
        "meta_bstar": 0.0035867,
        "meta_mean_motion_dot": 0.00022615,
        "meta_mean_motion_ddot": 0,
        "tle_line1": "1 35705U 93036AQA 25337.22151718  .00022615  00000+0  35867-2 0  9994",
        "tle_line2": "2 35705  74.2742 154.0557 0034156 110.0272 250.4584 14.71707631857866"
      },
      "geometry": {
        "type": "Point",
        "coordinates": [
          135.54468136376533,
          -8.800888629767025
        ]
      }
    },
    {
      "type": "Feature",
      "properties": {
        "norad_id": 35706,
        "name": "COSMOS 2251 DEB",
        "group": "cosmos-2251-debris",
        "lat": -25.292422973581058,
        "lon": 56.87548763264636,
        "alt_km": 1211.9905448804848,
        "timestamp": "2025-12-11T13:55:02.562819+00:00",
        "meta_object_name": "COSMOS 2251 DEB",
        "meta_object_id": "1993-036AQB",
        "meta_epoch": "2025-12-10T13:26:36.115008",
        "meta_mean_motion": 13.65916691,
        "meta_eccentricity": 0.0340886,
        "meta_inclination": 73.8891,
        "meta_ra_of_asc_node": 66.409,
        "meta_arg_of_pericenter": 116.6304,
        "meta_mean_anomaly": 247.0156,
        "meta_ephemeris_type": 0,
        "meta_classification_type": "U",
        "meta_norad_cat_id": 35706,
        "meta_element_set_no": 999,
        "meta_rev_at_epoch": 62032,
        "meta_bstar": 0.0013852,
        "meta_mean_motion_dot": 1.675e-05,
        "meta_mean_motion_ddot": 0,
        "tle_line1": "1 35706U 93036AQB 25344.56014022  .00001675  00000+0  13852-2 0  9999",
        "tle_line2": "2 35706  73.8891  66.4090 0340886 116.6304 247.0156 13.65916691620329"
      },
      "geometry": {
        "type": "Point",
        "coordinates": [
          56.87548763264636,
          -25.292422973581058
        ]
      }
    },
    {
      "type": "Feature",
      "properties": {
        "norad_id": 35711,
        "name": "COSMOS 2251 DEB",
        "group": "cosmos-2251-debris",
        "lat": 2.1185361844410178,
        "lon": -136.70517127183052,
        "alt_km": 635.8985855041547,
        "timestamp": "2025-12-11T13:55:02.562829+00:00",
        "meta_object_name": "COSMOS 2251 DEB",
        "meta_object_id": "1993-036AQG",
        "meta_epoch": "2025-12-10T23:08:43.048032",
        "meta_mean_motion": 14.63792974,
        "meta_eccentricity": 0.0085386,
        "meta_inclination": 74.0508,
        "meta_ra_of_asc_node": 223.8689,
        "meta_arg_of_pericenter": 325.2141,
        "meta_mean_anomaly": 34.3461,
        "meta_ephemeris_type": 0,
        "meta_classification_type": "U",
        "meta_norad_cat_id": 35711,
        "meta_element_set_no": 999,
        "meta_rev_at_epoch": 87745,
        "meta_bstar": 0.00036043,
        "meta_mean_motion_dot": 1.949e-05,
        "meta_mean_motion_ddot": 0,
        "tle_line1": "1 35711U 93036AQG 25344.96438713  .00001949  00000+0  36043-3 0  9998",
        "tle_line2": "2 35711  74.0508 223.8689 0085386 325.2141  34.3461 14.63792974877453"
      },
      "geometry": {
        "type": "Point",
        "coordinates": [
          -136.70517127183052,
          2.1185361844410178
        ]
      }
    },
    {
      "type": "Feature",
      "properties": {
        "norad_id": 35716,
        "name": "COSMOS 2251 DEB",
        "group": "cosmos-2251-debris",
        "lat": 72.29704029241798,
        "lon": -47.65327200665288,
        "alt_km": 653.7827657808448,
        "timestamp": "2025-12-11T13:55:02.562839+00:00",
        "meta_object_name": "COSMOS 2251 DEB",
        "meta_object_id": "1993-036AQM",
        "meta_epoch": "2025-12-10T22:58:34.278816",
        "meta_mean_motion": 14.60083428,
        "meta_eccentricity": 0.0088633,
        "meta_inclination": 73.9924,
        "meta_ra_of_asc_node": 197.6138,
        "meta_arg_of_pericenter": 39.0207,
        "meta_mean_anomaly": 26.7611,
        "meta_ephemeris_type": 0,
        "meta_classification_type": "U",
        "meta_norad_cat_id": 35716,
        "meta_element_set_no": 999,
        "meta_rev_at_epoch": 87601,
        "meta_bstar": 0.00015815,
        "meta_mean_motion_dot": 7.71e-06,
        "meta_mean_motion_ddot": 0,
        "tle_line1": "1 35716U 93036AQM 25344.95734119  .00000771  00000+0  15815-3 0  9997",
        "tle_line2": "2 35716  73.9924 197.6138 0088633  39.0207  26.7611 14.60083428876013"
      },
      "geometry": {
        "type": "Point",
        "coordinates": [
          -47.65327200665288,
          72.29704029241798
        ]
      }
    },
    {
      "type": "Feature",
      "properties": {
        "norad_id": 35717,
        "name": "COSMOS 2251 DEB",
        "group": "cosmos-2251-debris",
        "lat": -42.63379670844379,
        "lon": -155.53219445320192,
        "alt_km": 800.3867554583885,
        "timestamp": "2025-12-11T13:55:02.562850+00:00",
        "meta_object_name": "COSMOS 2251 DEB",
        "meta_object_id": "1993-036AQN",
        "meta_epoch": "2025-12-08T11:00:53.829504",
        "meta_mean_motion": 14.38444389,
        "meta_eccentricity": 0.00767393,
        "meta_inclination": 74.16,
        "meta_ra_of_asc_node": 225.3267,
        "meta_arg_of_pericenter": 86.192,
        "meta_mean_anomaly": 274.8004,
        "meta_ephemeris_type": 0,
        "meta_classification_type": "U",
        "meta_norad_cat_id": 35717,
        "meta_element_set_no": 999,
        "meta_rev_at_epoch": 74038,
        "meta_bstar": 0.0017775827,
        "meta_mean_motion_dot": 5.593e-05,
        "meta_mean_motion_ddot": 0,
        "tle_line1": "1 35717U 93036AQN 25342.45895636  .00005593  00000+0  17776-2 0  9997",
        "tle_line2": "2 35717  74.1600 225.3267 0076739  86.1920 274.8004 14.38444389740383"
      },
      "geometry": {
        "type": "Point",
        "coordinates": [
          -155.53219445320192,
          -42.63379670844379
        ]
      }
    },
    {
      "type": "Feature",
      "properties": {
        "norad_id": 35718,
        "name": "COSMOS 2251 DEB",
        "group": "cosmos-2251-debris",
        "lat": -61.68842543126144,
        "lon": 100.10919777472367,
        "alt_km": 675.4365048131949,
        "timestamp": "2025-12-11T13:55:02.562860+00:00",
        "meta_object_name": "COSMOS 2251 DEB",
        "meta_object_id": "1993-036AQP",
        "meta_epoch": "2025-12-09T16:26:31.942752",
        "meta_mean_motion": 14.68563709,
        "meta_eccentricity": 0.00112598,
        "meta_inclination": 74.0322,
        "meta_ra_of_asc_node": 135.8815,
        "meta_arg_of_pericenter": 184.534,
        "meta_mean_anomaly": 175.573,
        "meta_ephemeris_type": 0,
        "meta_classification_type": "U",
        "meta_norad_cat_id": 35718,
        "meta_element_set_no": 999,
        "meta_rev_at_epoch": 65795,
        "meta_bstar": 0.0024435222,
        "meta_mean_motion_dot": 0.00014198,
        "meta_mean_motion_ddot": 0,
        "tle_line1": "1 35718U 93036AQP 25343.68509193  .00014198  00000+0  24435-2 0  9995",
        "tle_line2": "2 35718  74.0322 135.8815 0011259 184.5340 175.5730 14.68563709657957"
      },
      "geometry": {
        "type": "Point",
        "coordinates": [
          100.10919777472367,
          -61.68842543126144
        ]
      }
    },
    {
      "type": "Feature",
      "properties": {
        "norad_id": 35721,
        "name": "COSMOS 2251 DEB",
        "group": "cosmos-2251-debris",
        "lat": 71.59783567427449,
        "lon": -60.046479447702986,
        "alt_km": 840.1052894701925,
        "timestamp": "2025-12-11T13:55:02.562870+00:00",
        "meta_object_name": "COSMOS 2251 DEB",
        "meta_object_id": "1993-036AQS",
        "meta_epoch": "2025-12-09T19:36:39.465216",
        "meta_mean_motion": 14.34317214,
        "meta_eccentricity": 0.01465875,
        "meta_inclination": 73.9489,
        "meta_ra_of_asc_node": 183.1196,
        "meta_arg_of_pericenter": 330.1589,
        "meta_mean_anomaly": 29.126,
        "meta_ephemeris_type": 0,
        "meta_classification_type": "U",
        "meta_norad_cat_id": 35721,
        "meta_element_set_no": 999,
        "meta_rev_at_epoch": 57747,
        "meta_bstar": 0.0018396061,
        "meta_mean_motion_dot": 5.808e-05,
        "meta_mean_motion_ddot": 0,
        "tle_line1": "1 35721U 93036AQS 25343.81712344  .00005808  00000+0  18396-2 0  9995",
        "tle_line2": "2 35721  73.9489 183.1196 0146587 330.1589  29.1260 14.34317214577479"
      },
      "geometry": {
        "type": "Point",
        "coordinates": [
          -60.046479447702986,
          71.59783567427449
        ]
      }
    }
  ]
}